GLOBALSTAR M045         
1 25676U 99019A   24215.93159869 -.00000059  00000+0  30284-3 0  9992
2 25676  51.9964 132.3514 0000802   1.3375  76.8603 12.27042986154326
GLOBALSTAR M019         
1 25677U 99019B   24215.78782638 -.00000160  00000+0 -73034-3 0  9996
2 25677  51.9855 240.7263 0000786  48.7046 122.6009 12.13860834146474
GLOBALSTAR M044         
1 25678U 99019C   24215.59192704 -.00000091  00000+0 -10887-3 0  9995
2 25678  51.9955 152.7720 0006173 141.5563  29.4227 11.90235855133383
GLOBALSTAR M042         
1 25679U 99019D   24215.97075684 -.00000072  00000+0  18850-3 0  9991
2 25679  51.9981 229.2761 0002825   2.8633   7.6384 12.22066372146350
GLOBALSTAR M025         
1 25770U 99031A   24215.87430855 -.00000074  00000+0 -19772-3 0  9998
2 25770  51.9788 176.6627 0001859 335.1823  64.3575 11.22551754445965
GLOBALSTAR M049         
1 25771U 99031B   24215.89704240 -.00000099  00000+0 -11782-2 0  9992
2 25771  51.9837 195.3776 0002795 204.3788 155.6876 11.12108253 82013
GLOBALSTAR M047         
1 25772U 99031C   24215.71134387 -.00000047  00000+0  63382-3 0  9999
2 25772  51.9793 223.1962 0016065  75.7148 284.5441 11.31921646435042
GLOBALSTAR M052         
1 25773U 99031D   24215.73538948 -.00000008  00000+0  19515-2 0  9998
2 25773  51.9888 308.9025 0002202  12.1551 107.7707 11.15052254442985
